NORAD_CAT_ID,OBJECT_NAME,OBJECT_TYPE,EPOCH,MEAN_MOTION,ECCENTRICITY,INCLINATION,RA_OF_ASC_NODE,ARG_OF_PERICENTER,MEAN_ANOMALY,BSTAR,MEAN_MOTION_DOT,MEAN_MOTION_DDOT,TLE_LINE0,TLE_LINE1,TLE_LINE2,SEMIMAJOR_AXIS,PERIOD,APOGEE,PERIGEE,DECAYED
53030.0,STARLINK-4160,PAYLOAD,2023-03-12 02:18:29,15.08855349,0.0001057,53.2164,313.4551,93.0414,267.0699,0.0013434,0.00021166,0.0,0 STARLINK-4160,1 53030U 22076AW  23071.09617057  .00021166  00000-0  13434-2 0  9999,2 53030  53.2164 313.4551 0001057  93.0414 267.0699 15.08855349 38367,6917.833,95.437,540.43,538.967,0.0
53030.0,STARLINK-4160,PAYLOAD,2023-03-12 16:36:57,15.08846106,0.0001345,53.2152,310.7788,98.5201,261.5944,0.0004894,7.511e-05,0.0,0 STARLINK-4160,1 53030U 22076AW  23071.69233170  .00007511  00000-0  48940-3 0  9994,2 53030  53.2152 310.7788 0001345  98.5201 261.5944 15.08846106 38453,6917.862,95.437,540.657,538.796,0.0
53030.0,STARLINK-4160,PAYLOAD,2023-03-13 14:52:21,15.08838073,0.0001093,53.2161,306.6147,106.86,253.2512,0.0002325,3.414e-05,0.0,0 STARLINK-4160,1 53030U 22076AW  23072.61969123  .00003414  00000-0  23250-3 0  9996,2 53030  53.2161 306.6147 0001093 106.8600 253.2512 15.08838073 38129,6917.886,95.438,540.507,538.995,0.0
53030.0,STARLINK-4160,PAYLOAD,2023-03-14 14:43:08,15.08843234,0.0001132,53.2141,302.1544,82.3048,277.8072,0.00051835,7.972e-05,0.0,0 STARLINK-4160,1 53030U 22076AW  23073.61329499  .00007972  00000-0  51835-3 0  9996,2 53030  53.2141 302.1544 0001132  82.3048 277.8072 15.08843234 38271,6917.871,95.437,540.519,538.952,0.0
53030.0,STARLINK-4160,PAYLOAD,2023-03-15 00:15:27,15.08862521,0.0001388,53.2139,300.371,67.7111,292.4028,0.00099041,0.00015519,0.0,0 STARLINK-4160,1 53030U 22076AW  23074.01073048  .00015519  00000-0  99041-3 0  9994,2 53030  53.2139 300.3710 0001388  67.7111 292.4028 15.08862521 38807,6917.812,95.436,540.637,538.716,0.0
53030.0,STARLINK-4160,PAYLOAD,2023-03-15 20:55:27,15.08853338,0.000133,53.2131,296.5051,74.2378,285.8761,0.00058373,9.018e-05,0.0,0 STARLINK-4160,1 53030U 22076AW  23074.87185049  .00009018  00000-0  58373-3 0  9993,2 53030  53.2131 296.5051 0001330  74.2378 285.8761 15.08853338 38938,6917.84,95.437,540.625,538.785,0.0
53030.0,STARLINK-4160,PAYLOAD,2023-03-16 00:06:14,15.08855505,0.0001203,53.2134,295.9102,79.3433,280.7695,0.00074647,0.00011617,0.0,0 STARLINK-4160,1 53030U 22076AW  23075.00432977  .00011617  00000-0  74647-3 0  9994,2 53030  53.2134 295.9102 0001203  79.3433 280.7695 15.08855505 38486,6917.833,95.437,540.53,538.866,0.0
53030.0,STARLINK-4160,PAYLOAD,2023-03-16 20:46:15,15.08825086,9.82e-05,53.215,292.0445,83.3575,276.7528,0.00079012,0.00012304,0.0,0 STARLINK-4160,1 53030U 22076AW  23075.86546147  .00012304  00000-0  79012-3 0  9998,2 53030  53.2150 292.0445 0000982  83.3575 276.7528 15.08825086 38613,6917.926,95.438,540.47,539.112,0.0
53030.0,STARLINK-4160,PAYLOAD,2023-03-16 23:57:02,15.08827902,0.0001133,53.2151,291.4499,84.7982,275.314,0.00090016,0.00014062,0.0,0 STARLINK-4160,1 53030U 22076AW  23075.99794314  .00014062  00000-0  90016-3 0  9993,2 53030  53.2151 291.4499 0001133  84.7982 275.3140 15.08827902 39101,6917.917,95.438,540.566,538.999,0.0
53030.0,STARLINK-4160,PAYLOAD,2023-03-17 07:53:57,15.08837842,0.0001182,53.215,289.9631,91.8954,268.2174,0.00070843,0.00011004,0.0,0 STARLINK-4160,1 53030U 22076AW  23076.32914324  .00011004  00000-0  70843-3 0  9995,2 53030  53.2150 289.9631 0001182  91.8954 268.2174 15.08837842 38686,6917.887,95.438,540.57,538.934,0.0
53030.0,STARLINK-4160,PAYLOAD,2023-03-17 20:37:02,15.08857155,0.0001092,53.2147,287.5842,87.5463,272.5654,0.00090368,0.0001413,0.0,0 STARLINK-4160,1 53030U 22076AW  23076.85905874  .00014130  00000-0  90368-3 0  9990,2 53030  53.2147 287.5842 0001092  87.5463 272.5654 15.08857155 38766,6917.828,95.436,540.448,538.938,0.0
53030.0,STARLINK-4160,PAYLOAD,2023-03-17 23:47:48,15.0886324,0.0001124,53.2145,286.9894,87.8551,272.257,0.0009854,0.00015439,0.0,0 STARLINK-4160,1 53030U 22076AW  23076.99153651  .00015439  00000-0  98540-3 0  9996,2 53030  53.2145 286.9894 0001124  87.8551 272.2570 15.08863240 39252,6917.809,95.436,540.452,538.897,0.0
53030.0,STARLINK-4160,PAYLOAD,2023-03-18 20:27:49,15.08859673,9.55e-05,53.215,283.1236,90.0516,270.0585,0.00054951,8.473e-05,0.0,0 STARLINK-4160,1 53030U 22076AW  23077.85265111  .00008473  00000-0  54951-3 0  9995,2 53030  53.2150 283.1236 0000955  90.0516 270.0585 15.08859673 39386,6917.82,95.436,540.346,539.025,0.0
53030.0,STARLINK-4160,PAYLOAD,2023-03-19 06:00:07,15.08853043,9.38e-05,53.2132,281.338,88.9411,271.1688,0.00041809,6.375e-05,0.0,0 STARLINK-4160,1 53030U 22076AW  23078.25008993  .00006375  00000-0  41809-3 0  9990,2 53030  53.2132 281.3380 0000938  88.9411 271.1688 15.08853043 39445,6917.841,95.437,540.354,539.057,0.0
53030.0,STARLINK-4160,PAYLOAD,2023-03-19 13:57:03,15.08844149,0.0001157,53.2151,279.8525,104.1653,255.9468,0.00038723,5.881e-05,0.0,0 STARLINK-4160,1 53030U 22076AW  23078.58129036  .00005881  00000-0  38723-3 0  9990,2 53030  53.2151 279.8525 0001157 104.1653 255.9468 15.08844149 39029,6917.868,95.437,540.533,538.932,0.0
53030.0,STARLINK-4160,PAYLOAD,2023-03-19 20:18:35,15.08849466,0.0001068,53.215,278.6637,100.8965,259.2147,0.00044272,6.767e-05,0.0,0 STARLINK-4160,1 53030U 22076AW  23078.84624973  .00006767  00000-0  44272-3 0  9999,2 53030  53.2150 278.6637 0001068 100.8965 259.2147 15.08849466 39533,6917.851,95.437,540.455,538.978,0.0
53030.0,STARLINK-4160,PAYLOAD,2023-03-20 05:50:54,15.08841011,9.19e-05,53.2139,276.8787,98.4337,261.6759,0.00017843,2.553e-05,0.0,0 STARLINK-4160,1 53030U 22076AW  23079.24369058  .00002553  00000-0  17843-3 0  9997,2 53030  53.2139 276.8787 0000919  98.4337 261.6759 15.08841011 39595,6917.877,95.437,540.378,539.107,0.0
53030.0,STARLINK-4160,PAYLOAD,2023-03-20 12:12:27,15.08840967,9.42e-05,53.2138,275.6893,99.3786,260.7313,8.9993e-05,1.145e-05,0.0,0 STARLINK-4160,1 53030U 22076AW  23079.50865082  .00001145  00000-0  89993-4 0  9996,2 53030  53.2138 275.6893 0000942  99.3786 260.7313 15.08840967 39161,6917.877,95.437,540.394,539.091,0.0
53030.0,STARLINK-4160,PAYLOAD,2023-03-20 20:09:22,15.0884388,8.8e-05,53.2137,274.2019,99.1563,260.9529,0.00011891,1.605e-05,0.0,0 STARLINK-4160,1 53030U 22076AW  23079.83984953  .00001605  00000-0  11891-3 0  9993,2 53030  53.2137 274.2019 0000880  99.1563 260.9529 15.08843880 39211,6917.869,95.437,540.342,539.125,0.0
53030.0,STARLINK-4160,PAYLOAD,2023-03-21 12:03:14,15.08838584,0.0001318,53.215,271.2276,99.372,260.7421,7.4369e-05,8.96e-06,0.0,0 STARLINK-4160,1 53030U 22076AW  23080.50225297  .00000896  00000-0  74369-4 0  9999,2 53030  53.2150 271.2276 0001318  99.3720 260.7421 15.08838584 39317,6917.885,95.438,540.661,538.838,0.0
53030.0,STARLINK-4160,PAYLOAD,2023-03-21 20:00:10,15.08838232,0.0001181,53.2144,269.7409,100.5922,259.5203,3.6048e-05,2.86e-06,0.0,0 STARLINK-4160,1 53030U 22076AW  23080.83345305  .00000286  00000-0  36048-4 0  9993,2 53030  53.2144 269.7409 0001181 100.5922 259.5203 15.08838232 39838,6917.886,95.438,540.568,538.934,0.0
53030.0,STARLINK-4160,PAYLOAD,2023-03-22 19:50:57,15.0884332,9.57e-05,53.2142,265.279,108.1166,251.9931,0.00022632,3.316e-05,0.0,0 STARLINK-4160,1 53030U 22076AW  23081.82705341  .00003316  00000-0  22632-3 0  9993,2 53030  53.2142 265.2790 0000957 108.1166 251.9931 15.08843320 39517,6917.87,95.437,540.397,539.073,0.0
53030.0,STARLINK-4160,PAYLOAD,2023-03-23 11:44:49,15.08841529,0.000118,53.2149,262.3078,83.0493,277.0633,0.00016891,2.401e-05,0.0,0 STARLINK-4160,1 53030U 22076AW  23082.48945755  .00002401  00000-0  16891-3 0  9995,2 53030  53.2149 262.3078 0001180  83.0493 277.0633 15.08841529 40085,6917.876,95.437,540.557,538.924,0.0
53030.0,STARLINK-4160,PAYLOAD,2023-03-23 18:06:21,15.08841757,0.0001155,53.215,261.1182,82.1515,277.9608,0.00019964,2.891e-05,0.0,0 STARLINK-4160,1 53030U 22076AW  23082.75441802  .00002891  00000-0  19964-3 0  9996,2 53030  53.2150 261.1182 0001155  82.1515 277.9608 15.08841757 39652,6917.875,95.437,540.539,538.941,0.0
53030.0,STARLINK-4160,PAYLOAD,2023-03-24 05:14:03,15.08863144,0.0001104,53.2146,259.0361,81.894,278.2178,0.00068461,0.00010631,0.0,0 STARLINK-4160,1 53030U 22076AW  23083.21809301  .00010631  00000-0  68461-3 0  9997,2 53030  53.2146 259.0361 0001104  81.8940 278.2178 15.08863144 40195,6917.81,95.436,540.438,538.911,0.0
53030.0,STARLINK-4160,PAYLOAD,2023-03-24 11:35:35,15.08851152,0.000113,53.2145,257.8461,82.8326,277.2795,0.00034286,5.175e-05,0.0,0 STARLINK-4160,1 53030U 22076AW  23083.48305346  .00005175  00000-0  34286-3 0  9991,2 53030  53.2145 257.8461 0001130  82.8326 277.2795 15.08851152 40234,6917.846,95.437,540.493,538.93,0.0
53030.0,STARLINK-4160,PAYLOAD,2023-03-24 17:57:07,15.08857746,0.0001028,53.2146,256.6565,84.3199,275.791,0.00042673,6.513e-05,0.0,0 STARLINK-4160,1 53030U 22076AW  23083.74800921  .00006513  00000-0  42673-3 0  9995,2 53030  53.2146 256.6565 0001028  84.3199 275.7910 15.08857746 39806,6917.826,95.436,540.402,538.98,0.0
53030.0,STARLINK-4160,PAYLOAD,2023-03-25 05:04:50,15.08845755,6.53e-05,53.2146,254.5752,27.5428,332.5599,0.00015998,2.26e-05,0.0,0 STARLINK-4160,1 53030U 22076AW  23084.21169172  .00002260  00000-0  15998-3 0  9999,2 53030  53.2146 254.5752 0000653  27.5428 332.5599 15.08845755 40341,6917.863,95.437,540.18,539.276,0.0
53030.0,STARLINK-4160,PAYLOAD,2023-03-25 11:26:24,15.08805996,0.0001275,53.2142,253.3857,56.2338,303.8775,-0.00055464,-9.096e-05,0.0,0 STARLINK-4160,1 53030U 22076AW  23084.47667128 -.00009096  00000-0 -55464-3 0  9999,2 53030  53.2142 253.3857 0001275  56.2338 303.8775 15.08805996 40384,6917.984,95.44,540.731,538.967,0.0
53030.0,STARLINK-4160,PAYLOAD,2023-03-25 17:47:57,15.08810585,0.0001319,53.2153,252.1967,62.3583,297.7543,-0.00041135,-6.823e-05,0.0,0 STARLINK-4160,1 53030U 22076AW  23084.74163285 -.00006823  00000-0 -41135-3 0  9999,2 53030  53.2153 252.1967 0001319  62.3583 297.7543 15.08810585 40423,6917.97,95.439,540.748,538.923,0.0
